CCSDS_OMM_VERS = 2.0
CREATION_DATE  = 
ORIGINATOR     = 

OBJECT_NAME    = SL-14 R/B
OBJECT_ID      = 1991-042B
CENTER_NAME    = EARTH
REF_FRAME      = TEME
TIME_SYSTEM    = UTC
MEAN_ELEMENT_THEORY = SGP/SGP4

EPOCH          = 2025-12-30T19:29:51.816192
MEAN_MOTION    = 14.81757906
ECCENTRICITY   = .0018544
INCLINATION    = 82.4936
RA_OF_ASC_NODE = 284.7775
ARG_OF_PERICENTER = 105.8819
MEAN_ANOMALY   = 254.4441

EPHEMERIS_TYPE = 0
CLASSIFICATION_TYPE = U
NORAD_CAT_ID   = 21423
ELEMENT_SET_NO = 999
REV_AT_EPOCH   = 84287
BSTAR          = .92108E-4
MEAN_MOTION_DOT = .752E-5
MEAN_MOTION_DDOT = 0

CCSDS_OMM_VERS = 2.0
CREATION_DATE  = 
ORIGINATOR     = 

OBJECT_NAME    = ERS-1
OBJECT_ID      = 1991-050A
CENTER_NAME    = EARTH
REF_FRAME      = TEME
TIME_SYSTEM    = UTC
MEAN_ELEMENT_THEORY = SGP/SGP4

EPOCH          = 2025-12-30T14:27:04.749120
MEAN_MOTION    = 14.39380582
ECCENTRICITY   = .0032757
INCLINATION    = 98.7900
RA_OF_ASC_NODE = 16.1033
ARG_OF_PERICENTER = 48.5752
MEAN_ANOMALY   = 311.8241

EPHEMERIS_TYPE = 0
CLASSIFICATION_TYPE = U
NORAD_CAT_ID   = 21574
ELEMENT_SET_NO = 999
REV_AT_EPOCH   = 80579
BSTAR          = .20459E-3
MEAN_MOTION_DOT = .594E-5
MEAN_MOTION_DDOT = 0

CCSDS_OMM_VERS = 2.0
CREATION_DATE  = 
ORIGINATOR     = 

OBJECT_NAME    = ARIANE 40 R/B
OBJECT_ID      = 1991-050F
CENTER_NAME    = EARTH
REF_FRAME      = TEME
TIME_SYSTEM    = UTC
MEAN_ELEMENT_THEORY = SGP/SGP4

EPOCH          = 2025-12-30T17:56:59.741088
MEAN_MOTION    = 14.42829677
ECCENTRICITY   = .0001969
INCLINATION    = 98.2141
RA_OF_ASC_NODE = 54.5264
ARG_OF_PERICENTER = 288.2741
MEAN_ANOMALY   = 71.8235

EPHEMERIS_TYPE = 0
CLASSIFICATION_TYPE = U
NORAD_CAT_ID   = 21610
ELEMENT_SET_NO = 999
REV_AT_EPOCH   = 80905
BSTAR          = .18671E-3
MEAN_MOTION_DOT = .581E-5
MEAN_MOTION_DDOT = 0

CCSDS_OMM_VERS = 2.0
CREATION_DATE  = 
ORIGINATOR     = 

OBJECT_NAME    = INTERCOSMOS 25
OBJECT_ID      = 1991-086A
CENTER_NAME    = EARTH
REF_FRAME      = TEME
TIME_SYSTEM    = UTC
MEAN_ELEMENT_THEORY = SGP/SGP4

EPOCH          = 2025-12-30T09:15:51.927552
MEAN_MOTION    = 12.11801132
ECCENTRICITY   = .14861629
INCLINATION    = 82.6079
RA_OF_ASC_NODE = 351.9017
ARG_OF_PERICENTER = 266.3371
MEAN_ANOMALY   = 76.7179

EPHEMERIS_TYPE = 0
CLASSIFICATION_TYPE = U
NORAD_CAT_ID   = 21819
ELEMENT_SET_NO = 999
REV_AT_EPOCH   = 48829
BSTAR          = .490793E-3
MEAN_MOTION_DOT = .2464E-4
MEAN_MOTION_DDOT = 0

CCSDS_OMM_VERS = 2.0
CREATION_DATE  = 
ORIGINATOR     = 

OBJECT_NAME    = SL-8 R/B
OBJECT_ID      = 1992-008B
CENTER_NAME    = EARTH
REF_FRAME      = TEME
TIME_SYSTEM    = UTC
MEAN_ELEMENT_THEORY = SGP/SGP4

EPOCH          = 2025-12-30T08:37:30.799200
MEAN_MOTION    = 13.75963213
ECCENTRICITY   = .00340755
INCLINATION    = 82.9278
RA_OF_ASC_NODE = 319.3409
ARG_OF_PERICENTER = 330.5647
MEAN_ANOMALY   = 138.5697

EPHEMERIS_TYPE = 0
CLASSIFICATION_TYPE = U
NORAD_CAT_ID   = 21876
ELEMENT_SET_NO = 999
REV_AT_EPOCH   = 69988
BSTAR          = .15588107E-3
MEAN_MOTION_DOT = .167E-5
MEAN_MOTION_DDOT = 0

CCSDS_OMM_VERS = 2.0
CREATION_DATE  = 
ORIGINATOR     = 

OBJECT_NAME    = SL-8 R/B
OBJECT_ID      = 1992-020B
CENTER_NAME    = EARTH
REF_FRAME      = TEME
TIME_SYSTEM    = UTC
MEAN_ELEMENT_THEORY = SGP/SGP4

EPOCH          = 2025-12-30T15:55:22.683072
MEAN_MOTION    = 13.75532467
ECCENTRICITY   = .0029944
INCLINATION    = 82.9289
RA_OF_ASC_NODE = 205.0073
ARG_OF_PERICENTER = 128.9649
MEAN_ANOMALY   = 297.5956

EPHEMERIS_TYPE = 0
CLASSIFICATION_TYPE = U
NORAD_CAT_ID   = 21938
ELEMENT_SET_NO = 999
REV_AT_EPOCH   = 69164
BSTAR          = .21802E-3
MEAN_MOTION_DOT = .226E-5
MEAN_MOTION_DDOT = 0

CCSDS_OMM_VERS = 2.0
CREATION_DATE  = 
ORIGINATOR     = 

OBJECT_NAME    = USA 81
OBJECT_ID      = 1992-023A
CENTER_NAME    = EARTH
REF_FRAME      = TEME
TIME_SYSTEM    = UTC
MEAN_ELEMENT_THEORY = SGP/SGP4

EPOCH          = 2025-12-30T13:39:02.801088
MEAN_MOTION    = 14.32334653
ECCENTRICITY   = .0001087
INCLINATION    = 85.0086
RA_OF_ASC_NODE = 171.2936
ARG_OF_PERICENTER = 99.4636
MEAN_ANOMALY   = 260.6679

EPHEMERIS_TYPE = 0
CLASSIFICATION_TYPE = U
NORAD_CAT_ID   = 21949
ELEMENT_SET_NO = 999
REV_AT_EPOCH   = 8489
BSTAR          = .12542E-3
MEAN_MOTION_DOT = .358E-5
MEAN_MOTION_DDOT = 0

CCSDS_OMM_VERS = 2.0
CREATION_DATE  = 
ORIGINATOR     = 

OBJECT_NAME    = COSMOS 2219
OBJECT_ID      = 1992-076A
CENTER_NAME    = EARTH
REF_FRAME      = TEME
TIME_SYSTEM    = UTC
MEAN_ELEMENT_THEORY = SGP/SGP4

EPOCH          = 2025-12-30T18:18:53.792640
MEAN_MOTION    = 14.14073243
ECCENTRICITY   = .0019799
INCLINATION    = 71.0595
RA_OF_ASC_NODE = 162.1562
ARG_OF_PERICENTER = 302.0692
MEAN_ANOMALY   = 57.8507

EPHEMERIS_TYPE = 0
CLASSIFICATION_TYPE = U
NORAD_CAT_ID   = 22219
ELEMENT_SET_NO = 999
REV_AT_EPOCH   = 70863
BSTAR          = .25756E-3
MEAN_MOTION_DOT = .444E-5
MEAN_MOTION_DDOT = 0

CCSDS_OMM_VERS = 2.0
CREATION_DATE  = 
ORIGINATOR     = 

OBJECT_NAME    = SL-16 R/B
OBJECT_ID      = 1992-076B
CENTER_NAME    = EARTH
REF_FRAME      = TEME
TIME_SYSTEM    = UTC
MEAN_ELEMENT_THEORY = SGP/SGP4

EPOCH          = 2025-12-30T09:17:25.836576
MEAN_MOTION    = 14.16845879
ECCENTRICITY   = .00139367
INCLINATION    = 71.0012
RA_OF_ASC_NODE = 334.3572
ARG_OF_PERICENTER = 210.4250
MEAN_ANOMALY   = 311.6385

EPHEMERIS_TYPE = 0
CLASSIFICATION_TYPE = U
NORAD_CAT_ID   = 22220
ELEMENT_SET_NO = 999
REV_AT_EPOCH   = 71201
BSTAR          = -.35262934E-4
MEAN_MOTION_DOT = -.119E-5
MEAN_MOTION_DDOT = 0

CCSDS_OMM_VERS = 2.0
CREATION_DATE  = 
ORIGINATOR     = 

OBJECT_NAME    = COSMOS 2221
OBJECT_ID      = 1992-080A
CENTER_NAME    = EARTH
REF_FRAME      = TEME
TIME_SYSTEM    = UTC
MEAN_ELEMENT_THEORY = SGP/SGP4

EPOCH          = 2025-12-30T11:28:49.036512
MEAN_MOTION    = 14.95841592
ECCENTRICITY   = .00162041
INCLINATION    = 82.5042
RA_OF_ASC_NODE = 345.3450
ARG_OF_PERICENTER = 67.7601
MEAN_ANOMALY   = 292.5338

EPHEMERIS_TYPE = 0
CLASSIFICATION_TYPE = U
NORAD_CAT_ID   = 22236
ELEMENT_SET_NO = 999
REV_AT_EPOCH   = 77044
BSTAR          = .32986539E-3
MEAN_MOTION_DOT = .3718E-4
MEAN_MOTION_DDOT = 0

CCSDS_OMM_VERS = 2.0
CREATION_DATE  = 
ORIGINATOR     = 

OBJECT_NAME    = SL-16 R/B
OBJECT_ID      = 1992-093B
CENTER_NAME    = EARTH
REF_FRAME      = TEME
TIME_SYSTEM    = UTC
MEAN_ELEMENT_THEORY = SGP/SGP4

EPOCH          = 2025-12-30T18:21:49.575168
MEAN_MOTION    = 14.15434795
ECCENTRICITY   = .0002802
INCLINATION    = 71.0212
RA_OF_ASC_NODE = 148.9574
ARG_OF_PERICENTER = 18.7318
MEAN_ANOMALY   = 341.3907

EPHEMERIS_TYPE = 0
CLASSIFICATION_TYPE = U
NORAD_CAT_ID   = 22285
ELEMENT_SET_NO = 999
REV_AT_EPOCH   = 70340
BSTAR          = -.58365E-4
MEAN_MOTION_DOT = -.162E-5
MEAN_MOTION_DDOT = 0

CCSDS_OMM_VERS = 2.0
CREATION_DATE  = 
ORIGINATOR     = 

OBJECT_NAME    = COSMOS 2228
OBJECT_ID      = 1992-094A
CENTER_NAME    = EARTH
REF_FRAME      = TEME
TIME_SYSTEM    = UTC
MEAN_ELEMENT_THEORY = SGP/SGP4

EPOCH          = 2025-12-30T19:22:29.817984
MEAN_MOTION    = 14.96825208
ECCENTRICITY   = .0018178
INCLINATION    = 82.5188
RA_OF_ASC_NODE = 303.2469
ARG_OF_PERICENTER = 168.1523
MEAN_ANOMALY   = 192.0131

EPHEMERIS_TYPE = 0
CLASSIFICATION_TYPE = U
NORAD_CAT_ID   = 22286
ELEMENT_SET_NO = 999
REV_AT_EPOCH   = 76575
BSTAR          = .32359E-3
MEAN_MOTION_DOT = .3743E-4
MEAN_MOTION_DDOT = 0

