SL-14 R/B               
1 21423U 91042B   25364.81240528  .00000752  00000+0  92108-4 0  9995
2 21423  82.4936 284.7775 0018544 105.8819 254.4441 14.81757906842871
ERS-1                   
1 21574U 91050A   25364.60213830  .00000594  00000+0  20459-3 0  9997
2 21574  98.7900  16.1033 0032757  48.5752 311.8241 14.39380582805795
ARIANE 40 R/B           
1 21610U 91050F   25364.74791367  .00000581  00000+0  18671-3 0  9998
2 21610  98.2141  54.5264 0001969 288.2741  71.8235 14.42829677809058
INTERCOSMOS 25          
1 21819U 91086A   25364.38601768  .00002464  00000+0  49079-3 0  9991
2 21819  82.6079 351.9017 1486162 266.3371  76.7179 12.11801132488295
SL-8 R/B                
1 21876U 92008B   25364.35938425  .00000167  00000+0  15588-3 0  9995
2 21876  82.9278 319.3409 0034075 330.5647 138.5697 13.75963213699887
SL-8 R/B                
1 21938U 92020B   25364.66345698  .00000226  00000+0  21802-3 0  9998
2 21938  82.9289 205.0073 0029944 128.9649 297.5956 13.75532467691649
USA 81                  
1 21949U 92023A   25364.56878242  .00000358  00000+0  12542-3 0  9995
2 21949  85.0086 171.2936 0001087  99.4636 260.6679 14.32334653 84895
COSMOS 2219             
1 22219U 92076A   25364.76312260  .00000444  00000+0  25756-3 0  9996
2 22219  71.0595 162.1562 0019799 302.0692  57.8507 14.14073243708630
SL-16 R/B               
1 22220U 92076B   25364.38710459 -.00000119  00000+0 -35263-4 0  9994
2 22220  71.0012 334.3572 0013936 210.4250 311.6385 14.16845879712015
COSMOS 2221             
1 22236U 92080A   25364.47834533  .00003718  00000+0  32987-3 0  9991
2 22236  82.5042 345.3450 0016204  67.7601 292.5338 14.95841592770444
SL-16 R/B               
1 22285U 92093B   25364.76515712 -.00000162  00000+0 -58365-4 0  9997
2 22285  71.0212 148.9574 0002802  18.7318 341.3907 14.15434795703406
COSMOS 2228             
1 22286U 92094A   25364.80728956  .00003743  00000+0  32359-3 0  9990
2 22286  82.5188 303.2469 0018178 168.1523 192.0131 14.96825208765754
